{"type": "FeatureCollection", "features": [ {"type": "Feature", "properties": {"norad_id": 34375, "name": "IRIDIUM 33 DEB", "group": "iridium-33-debris", "lat": 63.77460529646835, "lon": -7.093244708102108, "alt_km": 752.1160879077606, "timestamp": "2025-12-18T23:35:49.447349+00:00", "meta": {"OBJECT_NAME": "IRIDIUM 33 DEB", "OBJECT_ID": "1997-051FT", "EPOCH": "2025-12-18T13:09:00.260352", "MEAN_MOTION": 14.18002809, "ECCENTRICITY": 0.01036066, "INCLINATION": 86.432, "RA_OF_ASC_NODE": 180.3588, "ARG_OF_PERICENTER": 108.552, "MEAN_ANOMALY": 306.522, "EPHEMERIS_TYPE": 0, "CLASSIFICATION_TYPE": "U", "NORAD_CAT_ID": 34375, "ELEMENT_SET_NO": 999, "REV_AT_EPOCH": 86794, "BSTAR": 0.0003387918, "MEAN_MOTION_DOT": 7.51e-06, "MEAN_MOTION_DDOT": 0}, "tle": {"line1": "1 34375U 97051FT  25352.54791968  .00000751  00000+0  33879-3 0  9995", "line2": "2 34375  86.4320 180.3588 0103606 108.5520 306.5220 14.18002809867942"}}, "geometry": {"type": "Point", "coordinates": [-7.093244708102108, 63.77460529646835]}}, {"type": "Feature", "properties": {"norad_id": 34376, "name": "IRIDIUM 33 DEB", "group": "iridium-33-debris", "lat": 48.950669819890074, "lon": 7.997287256624598, "alt_km": 682.5717766657781, "timestamp": "2025-12-18T23:35:49.447359+00:00", "meta": {"OBJECT_NAME": "IRIDIUM 33 DEB", "OBJECT_ID": "1997-051FU", "EPOCH": "2025-12-18T11:52:45.395904", "MEAN_MOTION": 14.62645733, "ECCENTRICITY": 0.00278817, "INCLINATION": 86.2979, "RA_OF_ASC_NODE": 3.9527, "ARG_OF_PERICENTER": 147.599, "MEAN_ANOMALY": 212.6941, "EPHEMERIS_TYPE": 0, "CLASSIFICATION_TYPE": "U", "NORAD_CAT_ID": 34376, "ELEMENT_SET_NO": 999, "REV_AT_EPOCH": 88091, "BSTAR": 0.0011763491, "MEAN_MOTION_DOT": 6.037e-05, "MEAN_MOTION_DDOT": 0}, "tle": {"line1": "1 34376U 97051FU  25352.49496986  .00006037  00000+0  11763-2 0  9992", "line2": "2 34376  86.2979   3.9527 0027881 147.5990 212.6941 14.62645733880915"}}, "geometry": {"type": "Point", "coordinates": [7.997287256624598, 48.950669819890074]}}, {"type": "Feature", "properties": {"norad_id": 34486, "name": "IRIDIUM 33 DEB", "group": "iridium-33-debris", "lat": -65.70809506891744, "lon": 1.1085791324253647, "alt_km": 595.473264654187, "timestamp": "2025-12-18T23:35:49.447370+00:00", "meta": {"OBJECT_NAME": "IRIDIUM 33 DEB", "OBJECT_ID": "1997-051GB", "EPOCH": "2025-12-18T13:12:33.232032", "MEAN_MOTION": 14.96051759, "ECCENTRICITY": 0.00138921, "INCLINATION": 86.3929, "RA_OF_ASC_NODE": 9.3426, "ARG_OF_PERICENTER": 95.5939, "MEAN_ANOMALY": 28.9882, "EPHEMERIS_TYPE": 0, "CLASSIFICATION_TYPE": "U", "NORAD_CAT_ID": 34486, "ELEMENT_SET_NO": 999, "REV_AT_EPOCH": 89073, "BSTAR": 0.0017069689, "MEAN_MOTION_DOT": 0.00019258, "MEAN_MOTION_DDOT": 0}, "tle": {"line1": "1 34486U 97051GB  25352.55038463  .00019258  00000+0  17070-2 0  9999", "line2": "2 34486  86.3929   9.3426 0013892  95.5939  28.9882 14.96051759890732"}}, "geometry": {"type": "Point", "coordinates": [1.1085791324253647, -65.70809506891744]}}, {"type": "Feature", "properties": {"norad_id": 34487, "name": "IRIDIUM 33 DEB", "group": "iridium-33-debris", "lat": -26.58676476637541, "lon": -168.47664650628496, "alt_km": 756.7534534025463, "timestamp": "2025-12-18T23:35:49.447380+00:00", "meta": {"OBJECT_NAME": "IRIDIUM 33 DEB", "OBJECT_ID": "1997-051GC", "EPOCH": "2025-12-18T07:45:56.041056", "MEAN_MOTION": 14.43223269, "ECCENTRICITY": 0.00331222, "INCLINATION": 86.3431, "RA_OF_ASC_NODE": 9.9731, "ARG_OF_PERICENTER": 110.9986, "MEAN_ANOMALY": 270.0816, "EPHEMERIS_TYPE": 0, "CLASSIFICATION_TYPE": "U", "NORAD_CAT_ID": 34487, "ELEMENT_SET_NO": 999, "REV_AT_EPOCH": 88329, "BSTAR": 0.00015301486, "MEAN_MOTION_DOT": 5.38e-06, "MEAN_MOTION_DDOT": 0}, "tle": {"line1": "1 34487U 97051GC  25352.32356529  .00000538  00000+0  15301-3 0  9998", "line2": "2 34487  86.3431   9.9731 0033122 110.9986 270.0816 14.43223269883297"}}, "geometry": {"type": "Point", "coordinates": [-168.47664650628496, -26.58676476637541]}}, {"type": "Feature", "properties": {"norad_id": 34488, "name": "IRIDIUM 33 DEB", "group": "iridium-33-debris", "lat": -33.599564962457194, "lon": -59.732159908236575, "alt_km": 476.97862410929247, "timestamp": "2025-12-18T23:35:49.447391+00:00", "meta": {"OBJECT_NAME": "IRIDIUM 33 DEB", "OBJECT_ID": "1997-051GD", "EPOCH": "2025-12-18T03:20:54.566016", "MEAN_MOTION": 15.30728918, "ECCENTRICITY": 0.00115761, "INCLINATION": 86.3225, "RA_OF_ASC_NODE": 303.1359, "ARG_OF_PERICENTER": 41.9025, "MEAN_ANOMALY": 318.3108, "EPHEMERIS_TYPE": 0, "CLASSIFICATION_TYPE": "U", "NORAD_CAT_ID": 34488, "ELEMENT_SET_NO": 999, "REV_AT_EPOCH": 89322, "BSTAR": 0.0037310323, "MEAN_MOTION_DOT": 0.00112448, "MEAN_MOTION_DDOT": 0}, "tle": {"line1": "1 34488U 97051GD  25352.13952044  .00112448  00000+0  37310-2 0  9999", "line2": "2 34488  86.3225 303.1359 0011576  41.9025 318.3108 15.30728918893222"}}, "geometry": {"type": "Point", "coordinates": [-59.732159908236575, -33.599564962457194]}}, {"type": "Feature", "properties": {"norad_id": 34492, "name": "IRIDIUM 33 DEB", "group": "iridium-33-debris", "lat": -84.95830980709464, "lon": -163.50458974941725, "alt_km": 721.8002136074037, "timestamp": "2025-12-18T23:35:49.447401+00:00", "meta": {"OBJECT_NAME": "IRIDIUM 33 DEB", "OBJECT_ID": "1997-051GH", "EPOCH": "2025-12-18T09:36:31.167936", "MEAN_MOTION": 14.25834729, "ECCENTRICITY": 0.01887299, "INCLINATION": 86.4707, "RA_OF_ASC_NODE": 332.3402, "ARG_OF_PERICENTER": 219.7976, "MEAN_ANOMALY": 295.0845, "EPHEMERIS_TYPE": 0, "CLASSIFICATION_TYPE": "U", "NORAD_CAT_ID": 34492, "ELEMENT_SET_NO": 999, "REV_AT_EPOCH": 85139, "BSTAR": 0.0028886567, "MEAN_MOTION_DOT": 8.305e-05, "MEAN_MOTION_DDOT": 0}, "tle": {"line1": "1 34492U 97051GH  25352.40036074  .00008305  00000+0  28887-2 0  9995", "line2": "2 34492  86.4707 332.3402 0188729 219.7976 295.0845 14.25834729851393"}}, "geometry": {"type": "Point", "coordinates": [-163.50458974941725, -84.95830980709464]}}, {"type": "Feature", "properties": {"norad_id": 34497, "name": "IRIDIUM 33 DEB", "group": "iridium-33-debris", "lat": -0.1807083169048764, "lon": -130.2540592435207, "alt_km": 845.6040833287079, "timestamp": "2025-12-18T23:35:49.447412+00:00", "meta": {"OBJECT_NAME": "IRIDIUM 33 DEB", "OBJECT_ID": "1997-051GN", "EPOCH": "2025-12-18T04:30:11.149056", "MEAN_MOTION": 14.27469284, "ECCENTRICITY": 0.00783512, "INCLINATION": 86.2772, "RA_OF_ASC_NODE": 50.074, "ARG_OF_PERICENTER": 321.7487, "MEAN_ANOMALY": 93.0567, "EPHEMERIS_TYPE": 0, "CLASSIFICATION_TYPE": "U", "NORAD_CAT_ID": 34497, "ELEMENT_SET_NO": 999, "REV_AT_EPOCH": 86961, "BSTAR": 0.00048701444, "MEAN_MOTION_DOT": 1.253e-05, "MEAN_MOTION_DDOT": 0}, "tle": {"line1": "1 34497U 97051GN  25352.18762904  .00001253  00000+0  48701-3 0  9996", "line2": "2 34497  86.2772  50.0740 0078351 321.7487  93.0567 14.27469284869610"}}, "geometry": {"type": "Point", "coordinates": [-130.2540592435207, -0.1807083169048764]}}, {"type": "Feature", "properties": {"norad_id": 34508, "name": "IRIDIUM 33 DEB", "group": "iridium-33-debris", "lat": -46.03250478832669, "lon": -76.23084206324768, "alt_km": 756.3786465724716, "timestamp": "2025-12-18T23:35:49.447422+00:00", "meta": {"OBJECT_NAME": "IRIDIUM 33 DEB", "OBJECT_ID": "1997-051GZ", "EPOCH": "2025-12-18T14:12:24.154272", "MEAN_MOTION": 14.38470921, "ECCENTRICITY": 0.00664838, "INCLINATION": 86.3709, "RA_OF_ASC_NODE": 100.1625, "ARG_OF_PERICENTER": 154.1507, "MEAN_ANOMALY": 206.3039, "EPHEMERIS_TYPE": 0, "CLASSIFICATION_TYPE": "U", "NORAD_CAT_ID": 34508, "ELEMENT_SET_NO": 999, "REV_AT_EPOCH": 87393, "BSTAR": 0.00092113634, "MEAN_MOTION_DOT": 2.904e-05, "MEAN_MOTION_DDOT": 0}, "tle": {"line1": "1 34508U 97051GZ  25352.59194623  .00002904  00000+0  92114-3 0  9992", "line2": "2 34508  86.3709 100.1625 0066483 154.1507 206.3039 14.38470921873932"}}, "geometry": {"type": "Point", "coordinates": [-76.23084206324768, -46.03250478832669]}}, {"type": "Feature", "properties": {"norad_id": 34521, "name": "IRIDIUM 33 DEB", "group": "iridium-33-debris", "lat": -62.72458171810791, "lon": -145.1462868259097, "alt_km": 688.5671262789829, "timestamp": "2025-12-18T23:35:49.447433+00:00", "meta": {"OBJECT_NAME": "IRIDIUM 33 DEB", "OBJECT_ID": "1997-051HN", "EPOCH": "2025-12-18T14:17:06.631296", "MEAN_MOTION": 14.63413961, "ECCENTRICITY": 0.00022735, "INCLINATION": 86.3793, "RA_OF_ASC_NODE": 27.9703, "ARG_OF_PERICENTER": 187.5039, "MEAN_ANOMALY": 172.6139, "EPHEMERIS_TYPE": 0, "CLASSIFICATION_TYPE": "U", "NORAD_CAT_ID": 34521, "ELEMENT_SET_NO": 999, "REV_AT_EPOCH": 88558, "BSTAR": 0.00060542288, "MEAN_MOTION_DOT": 3.152e-05, "MEAN_MOTION_DDOT": 0}, "tle": {"line1": "1 34521U 97051HN  25352.59521564  .00003152  00000+0  60542-3 0  9991", "line2": "2 34521  86.3793  27.9703 0002273 187.5039 172.6139 14.63413961885589"}}, "geometry": {"type": "Point", "coordinates": [-145.1462868259097, -62.72458171810791]}}, {"type": "Feature", "properties": {"norad_id": 34525, "name": "IRIDIUM 33 DEB", "group": "iridium-33-debris", "lat": -37.84534327922836, "lon": 41.35365790235749, "alt_km": 757.5643109229813, "timestamp": "2025-12-18T23:35:49.447443+00:00", "meta": {"OBJECT_NAME": "IRIDIUM 33 DEB", "OBJECT_ID": "1997-051HS", "EPOCH": "2025-12-18T14:21:35.776800", "MEAN_MOTION": 14.42919093, "ECCENTRICITY": 0.00065257, "INCLINATION": 86.3723, "RA_OF_ASC_NODE": 44.3432, "ARG_OF_PERICENTER": 81.7438, "MEAN_ANOMALY": 42.496, "EPHEMERIS_TYPE": 0, "CLASSIFICATION_TYPE": "U", "NORAD_CAT_ID": 34525, "ELEMENT_SET_NO": 999, "REV_AT_EPOCH": 88172, "BSTAR": 0.00026803165, "MEAN_MOTION_DOT": 9.15e-06, "MEAN_MOTION_DDOT": 0}, "tle": {"line1": "1 34525U 97051HS  25352.59833075  .00000915  00000+0  26803-3 0  9994", "line2": "2 34525  86.3723  44.3432 0006525  81.7438  42.4960 14.42919093881722"}}, "geometry": {"type": "Point", "coordinates": [41.35365790235749, -37.84534327922836]}}]}